[{"OBJECT_NAME":"STARLINK-1143","OBJECT_ID":"2020-012B","EPOCH":"2026-03-09T22:47:16.050048","MEAN_MOTION":15.62989311,"ECCENTRICITY":0.00073955,"INCLINATION":53.0474,"RA_OF_ASC_NODE":328.6332,"ARG_OF_PERICENTER":96.968,"MEAN_ANOMALY":263.2175,"EPHEMERIS_TYPE":0,"CLASSIFICATION_TYPE":"U","NORAD_CAT_ID":45179,"ELEMENT_SET_NO":999,"REV_AT_EPOCH":33596,"BSTAR":0.0013180943,"MEAN_MOTION_DOT":0.00123267,"MEAN_MOTION_DDOT":0},{"OBJECT_NAME":"STARLINK-36637","OBJECT_ID":"2026-020S","EPOCH":"2026-03-09T22:00:01.999584","MEAN_MOTION":15.72621627,"ECCENTRICITY":0.00016113,"INCLINATION":42.9995,"RA_OF_ASC_NODE":140.734,"ARG_OF_PERICENTER":269.0754,"MEAN_ANOMALY":54.974,"EPHEMERIS_TYPE":0,"CLASSIFICATION_TYPE":"U","NORAD_CAT_ID":67633,"ELEMENT_SET_NO":999,"REV_AT_EPOCH":603,"BSTAR":-0.016093623,"MEAN_MOTION_DOT":-0.0196988,"MEAN_MOTION_DDOT":0}]
